NORAD_CAT_ID,OBJECT_NAME,OBJECT_TYPE,EPOCH,MEAN_MOTION,ECCENTRICITY,INCLINATION,RA_OF_ASC_NODE,ARG_OF_PERICENTER,MEAN_ANOMALY,BSTAR,MEAN_MOTION_DOT,MEAN_MOTION_DDOT,TLE_LINE0,TLE_LINE1,TLE_LINE2,SEMIMAJOR_AXIS,PERIOD,APOGEE,PERIGEE,DECAYED
49142.0,STARLINK-3042,PAYLOAD,2024-06-16 09:14:52,14.98328862,0.0003278,69.9998,46.1983,266.8072,93.2712,0.00024673,2.852e-05,0.0,0 STARLINK-3042,1 49142U 21082N   24168.38532992  .00002852  00000-0  24673-3 0  9997,2 49142  69.9998  46.1983 0003278 266.8072  93.2712 14.98328862152401,6950.196,96.107,574.34,569.783,0.0
49142.0,STARLINK-3042,PAYLOAD,2024-06-16 22:03:56,14.98339176,0.0003278,69.9999,44.8514,266.204,93.8745,0.00022176,2.555e-05,0.0,0 STARLINK-3042,1 49142U 21082N   24168.91940300  .00002555  00000-0  22176-3 0  9998,2 49142  69.9999  44.8514 0003278 266.2040  93.8745 14.98339176152486,6950.165,96.106,574.308,569.751,0.0
49142.0,STARLINK-3042,PAYLOAD,2024-06-17 20:29:49,14.98333783,0.0003117,70.0003,42.4954,265.9977,94.0826,-8.0659e-06,-1.89e-06,0.0,0 STARLINK-3042,1 49142U 21082N   24169.85404802 -.00000189  00000-0 -80659-5 0  9999,2 49142  70.0003  42.4954 0003117 265.9977  94.0826 14.98333783152621,6950.181,96.107,574.213,569.88,0.0
49142.0,STARLINK-3042,PAYLOAD,2024-06-17 22:05:57,14.98333644,0.0003106,70.0005,42.3275,266.8795,93.2008,-2.2151e-05,-3.57e-06,0.0,0 STARLINK-3042,1 49142U 21082N   24169.92080845 -.00000357  00000-0 -22151-4 0  9993,2 49142  70.0005  42.3275 0003106 266.8795  93.2008 14.98333644152634,6950.182,96.107,574.205,569.888,0.0
49142.0,STARLINK-3042,PAYLOAD,2024-06-18 09:18:54,14.98336675,0.0003012,70.0004,41.1478,267.0007,93.0808,-4.6099e-05,-6.43e-06,0.0,0 STARLINK-3042,1 49142U 21082N   24170.38812527 -.00000643  00000-0 -46099-4 0  9990,2 49142  70.0004  41.1478 0003012 267.0007  93.0808 14.98336675152701,6950.172,96.107,574.131,569.944,0.0
49142.0,STARLINK-3042,PAYLOAD,2024-06-18 20:31:50,14.9834059,0.0003055,70.0003,39.9692,267.3686,92.7123,-6.9878e-05,-9.27e-06,0.0,0 STARLINK-3042,1 49142U 21082N   24170.85544005 -.00000927  00000-0 -69878-4 0  9990,2 49142  70.0003  39.9692 0003055 267.3686  92.7123 14.98340590152770,6950.16,96.106,574.148,569.902,0.0
49142.0,STARLINK-3042,PAYLOAD,2024-06-18 22:07:57,14.98341698,0.0003084,70.0002,39.8012,267.082,92.9986,-6.2849e-05,-8.43e-06,0.0,0 STARLINK-3042,1 49142U 21082N   24170.92219863 -.00000843  00000-0 -62849-4 0  9997,2 49142  70.0002  39.8012 0003084 267.0820  92.9986 14.98341698152783,6950.157,96.106,574.165,569.878,0.0
49142.0,STARLINK-3042,PAYLOAD,2024-06-19 01:20:14,14.98342079,0.0003065,70.0001,39.4648,267.0042,93.0766,-9.297e-05,-1.202e-05,0.0,0 STARLINK-3042,1 49142U 21082N   24171.05571825 -.00001202  00000-0 -92970-4 0  9999,2 49142  70.0001  39.4648 0003065 267.0042  93.0766 14.98342079152803,6950.156,96.106,574.151,569.89,0.0
49142.0,STARLINK-3042,PAYLOAD,2024-06-19 20:33:51,14.98328853,0.0003109,69.9999,37.4448,268.5055,91.5748,1.0955e-05,3.8e-07,0.0,0 STARLINK-3042,1 49142U 21082N   24171.85684124  .00000038  00000-0  10955-4 0  9991,2 49142  69.9999  37.4448 0003109 268.5055  91.5748 14.98328853152921,6950.196,96.107,574.222,569.901,0.0
49142.0,STARLINK-3042,PAYLOAD,2024-06-19 22:09:59,14.98329618,0.0003119,69.9998,37.2765,268.5896,91.4905,-1.1105e-06,-1.06e-06,0.0,0 STARLINK-3042,1 49142U 21082N   24171.92360111 -.00000106  00000-0 -11105-5 0  9993,2 49142  69.9998  37.2765 0003119 268.5896  91.4905 14.98329618152939,6950.194,96.107,574.227,569.891,0.0
49142.0,STARLINK-3042,PAYLOAD,2024-06-20 14:11:19,14.98331531,0.0003087,69.9999,35.5932,269.0187,91.0619,-4.3672e-06,-1.45e-06,0.0,0 STARLINK-3042,1 49142U 21082N   24172.59119972 -.00000145  00000-0 -43672-5 0  9991,2 49142  69.9999  35.5932 0003087 269.0187  91.0619 14.98331531153037,6950.188,96.107,574.199,569.908,0.0
49142.0,STARLINK-3042,PAYLOAD,2024-06-20 22:11:59,14.98332397,0.0003093,69.9998,34.7515,269.2202,90.8603,-2.8837e-06,-1.27e-06,0.0,0 STARLINK-3042,1 49142U 21082N   24172.92499869 -.00000127  00000-0 -28837-5 0  9990,2 49142  69.9998  34.7515 0003093 269.2202  90.8603 14.98332397153087,6950.185,96.107,574.2,569.901,0.0
49142.0,STARLINK-3042,PAYLOAD,2024-06-20 23:48:07,14.98332994,0.0003086,69.9999,34.5832,269.2424,90.8382,4.096e-06,-4.4e-07,0.0,0 STARLINK-3042,1 49142U 21082N   24172.99175798 -.00000044  00000-0  40960-5 0  9997,2 49142  69.9999  34.5832 0003086 269.2424  90.8382 14.98332994153094,6950.184,96.107,574.193,569.904,0.0
49142.0,STARLINK-3042,PAYLOAD,2024-06-21 14:13:20,14.9832995,0.000308,69.9998,33.0684,267.7549,92.3257,3.2279e-05,2.92e-06,0.0,0 STARLINK-3042,1 49142U 21082N   24173.59259837  .00000292  00000-0  32279-4 0  9998,2 49142  69.9998  33.0684 0003080 267.7549  92.3257 14.98329950153183,6950.193,96.107,574.199,569.917,0.0
49142.0,STARLINK-3042,PAYLOAD,2024-06-21 22:14:00,14.98330469,0.0003077,69.9999,32.2268,267.846,92.2347,3.5136e-05,3.26e-06,0.0,0 STARLINK-3042,1 49142U 21082N   24173.92639781  .00000326  00000-0  35136-4 0  9998,2 49142  69.9999  32.2268 0003077 267.8460  92.2347 14.98330469153234,6950.191,96.107,574.195,569.918,0.0
49142.0,STARLINK-3042,PAYLOAD,2024-06-21 23:50:08,14.98330665,0.0003077,69.9999,32.0584,267.927,92.1536,3.6406e-05,3.41e-06,0.0,0 STARLINK-3042,1 49142U 21082N   24173.99315762  .00000341  00000-0  36406-4 0  9993,2 49142  69.9999  32.0584 0003077 267.9270  92.1536 14.98330665153241,6950.191,96.107,574.194,569.917,0.0
49142.0,STARLINK-3042,PAYLOAD,2024-06-22 14:15:21,14.9833132,0.0003036,70.0,30.5435,268.1993,91.8819,1.7728e-05,1.19e-06,0.0,0 STARLINK-3042,1 49142U 21082N   24174.59399744  .00000119  00000-0  17728-4 0  9991,2 49142  70.0000  30.5435 0003036 268.1993  91.8819 14.98331320153334,6950.189,96.107,574.164,569.944,0.0
49142.0,STARLINK-3042,PAYLOAD,2024-06-22 22:16:01,14.98330951,0.0003017,70.0001,29.7019,266.2659,93.8155,1.3271e-05,6.5e-07,0.0,0 STARLINK-3042,1 49142U 21082N   24174.92779727  .00000065  00000-0  13271-4 0  9990,2 49142  70.0001  29.7019 0003017 266.2659  93.8155 14.98330951153389,6950.19,96.107,574.152,569.958,0.0
49142.0,STARLINK-3042,PAYLOAD,2024-06-23 14:17:22,14.983298,0.0003061,70.0001,28.0185,269.1232,90.9576,-1.9829e-07,-9.5e-07,0.0,0 STARLINK-3042,1 49142U 21082N   24175.59539806 -.00000095  00000-0 -19829-6 0  9998,2 49142  70.0001  28.0185 0003061 269.1232  90.9576 14.98329800153480,6950.194,96.107,574.186,569.931,0.0
49142.0,STARLINK-3042,PAYLOAD,2024-06-23 20:41:54,14.98329413,0.0003077,70.0,27.3451,268.9109,91.1697,-4.9271e-06,-1.52e-06,0.0,0 STARLINK-3042,1 49142U 21082N   24175.86243835 -.00000152  00000-0 -49271-5 0  9999,2 49142  70.0000  27.3451 0003077 268.9109  91.1697 14.98329413153526,6950.195,96.107,574.198,569.921,0.0
49142.0,STARLINK-3042,PAYLOAD,2024-06-23 22:18:02,14.98329484,0.0003075,70.0,27.1768,268.8645,91.2162,-3.9763e-06,-1.4e-06,0.0,0 STARLINK-3042,1 49142U 21082N   24175.92919828 -.00000140  00000-0 -39763-5 0  9990,2 49142  70.0000  27.1768 0003075 268.8645  91.2162 14.98329484153534,6950.194,96.107,574.197,569.922,0.0
49142.0,STARLINK-3042,PAYLOAD,2024-06-24 14:19:23,14.98331133,0.000309,69.9999,25.4932,269.7294,90.3511,1.8219e-05,1.24e-06,0.0,0 STARLINK-3042,1 49142U 21082N   24176.59679643  .00000124  00000-0  18219-4 0  9994,2 49142  69.9999  25.4932 0003090 269.7294  90.3511 14.98331133153632,6950.189,96.107,574.202,569.907,0.0
49142.0,STARLINK-3042,PAYLOAD,2024-06-24 20:43:55,14.98331027,0.0003104,69.9999,24.82,269.5249,90.5554,1.5926e-05,9.7e-07,0.0,0 STARLINK-3042,1 49142U 21082N   24176.86383634  .00000097  00000-0  15926-4 0  9997,2 49142  69.9999  24.8200 0003104 269.5249  90.5554 14.98331027153672,6950.19,96.107,574.212,569.897,0.0
49142.0,STARLINK-3042,PAYLOAD,2024-06-25 14:21:24,14.98330582,0.0003093,69.9999,22.9686,269.2392,90.8412,3.6018e-05,3.37e-06,0.0,0 STARLINK-3042,1 49142U 21082N   24177.59819540  .00000337  00000-0  36018-4 0  9990,2 49142  69.9999  22.9686 0003093 269.2392  90.8412 14.98330582153785,6950.191,96.107,574.206,569.906,0.0
49142.0,STARLINK-3042,PAYLOAD,2024-06-25 20:45:56,14.98330684,0.0003095,69.9998,22.295,268.8095,91.2709,3.5479e-05,3.3e-06,0.0,0 STARLINK-3042,1 49142U 21082N   24177.86523513  .00000330  00000-0  35479-4 0  9995,2 49142  69.9998  22.2950 0003095 268.8095  91.2709 14.98330684153820,6950.191,96.107,574.207,569.905,0.0
49142.0,STARLINK-3042,PAYLOAD,2024-06-25 22:22:04,14.98331354,0.0003082,69.9999,22.1268,268.6634,91.4172,4.2693e-05,4.16e-06,0.0,0 STARLINK-3042,1 49142U 21082N   24177.93199444  .00000416  00000-0  42693-4 0  9996,2 49142  69.9999  22.1268 0003082 268.6634  91.4172 14.98331354153837,6950.189,96.107,574.196,569.912,0.0
49142.0,STARLINK-3042,PAYLOAD,2024-06-25 23:58:12,14.98331736,0.0003086,69.9999,21.9585,268.8438,91.2368,4.5386e-05,4.49e-06,0.0,0 STARLINK-3042,1 49142U 21082N   24177.99875406  .00000449  00000-0  45386-4 0  9999,2 49142  69.9999  21.9585 0003086 268.8438  91.2368 14.98331736153844,6950.188,96.107,574.197,569.908,0.0
49142.0,STARLINK-3042,PAYLOAD,2024-06-26 22:24:05,14.98328914,0.0002995,70.0001,19.6023,265.8545,94.2271,-8.9992e-06,-2e-06,0.0,0 STARLINK-3042,1 49142U 21082N   24178.93339701 -.00000200  00000-0 -89992-5 0  9996,2 49142  70.0001  19.6023 0002995 265.8545  94.2271 14.98328914153981,6950.196,96.107,574.143,569.98,0.0
49142.0,STARLINK-3042,PAYLOAD,2024-06-27 22:26:06,14.98328436,0.0002992,70.0001,17.0769,269.7065,90.3751,-9.8893e-06,-2.11e-06,0.0,0 STARLINK-3042,1 49142U 21082N   24179.93479847 -.00000211  00000-0 -98893-5 0  9995,2 49142  70.0001  17.0769 0002992 269.7065  90.3751 14.98328436154134,6950.198,96.107,574.142,569.983,0.0
49142.0,STARLINK-3042,PAYLOAD,2024-06-28 14:27:26,14.9833275,0.0003035,69.9999,15.3934,269.3108,90.7704,7.6279e-05,8.17e-06,0.0,0 STARLINK-3042,1 49142U 21082N   24180.60239333  .00000817  00000-0  76279-4 0  9998,2 49142  69.9999  15.3934 0003035 269.3108  90.7704 14.98332750154232,6950.184,96.107,574.159,569.94,0.0
